ONEWEB-0620             
1 55161U 23004X   25029.19803793 -.00000486  00000+0 -14082-2 0  9991
2 55161  87.8906 121.5575 0002115  94.8498 265.2872 13.11417322 99774
ONEWEB-0621             
1 55162U 23004Y   25028.69110176  .00000372  00000+0  10142-2 0  9997
2 55162  87.8896 121.6189 0001502 103.0229 257.1066 13.11417770 99681
ONEWEB-0622             
1 55163U 23004Z   25029.23026104  .00000478  00000+0  13131-2 0  9994
2 55163  87.8899 121.5324 0001864  77.1333 283.0003 13.11418770 99751
ONEWEB-0623             
1 55164U 23004AA  25028.49824056  .00000114  00000+0  26098-3 0  9998
2 55164  87.9081 106.4461 0001978  89.7695 270.3663 13.17649916101126
ONEWEB-0624             
1 55165U 23004AB  25028.42850893 -.00000572  00000+0 -16261-2 0  9990
2 55165  87.8854  91.1609 0001749  96.5653 263.5675 13.12442250101847
ONEWEB-0625             
1 55166U 23004AC  25028.63999527  .00000053  00000+0  10429-3 0  9995
2 55166  87.9082 106.4164 0001784 108.5799 251.5526 13.17648427101135
ONEWEB-0626             
1 55167U 23004AD  25028.62986416  .00000074  00000+0  15840-3 0  9993
2 55167  87.9082 106.4172 0002516 106.0900 254.0508 13.17647996101134
ONEWEB-0627             
1 55168U 23004AE  25028.46618732  .00000056  00000+0  11026-3 0  9991
2 55168  87.9082 106.4519 0001778  84.1959 275.9375 13.17649653101113
